NORAD_CAT_ID,OBJECT_NAME,OBJECT_TYPE,EPOCH,MEAN_MOTION,ECCENTRICITY,INCLINATION,RA_OF_ASC_NODE,ARG_OF_PERICENTER,MEAN_ANOMALY,BSTAR,MEAN_MOTION_DOT,MEAN_MOTION_DDOT,TLE_LINE0,TLE_LINE1,TLE_LINE2,SEMIMAJOR_AXIS,PERIOD,APOGEE,PERIGEE,DECAYED
51738.0,STARLINK-3515,PAYLOAD,2022-07-09 16:00:00,15.08844777,0.0002139,53.214,210.2194,40.1678,353.0614,-0.0034846,-0.00055329,0.0,0 STARLINK-3515,1 51738U 22016AA  22190.66667824 -.00055329  00000-0 -34846-2 0  9997,2 51738  53.2140 210.2194 0002139  40.1678 353.0614 15.08844777 22525,6917.866,95.437,541.211,538.251,0.0
51738.0,STARLINK-3515,PAYLOAD,2022-07-09 20:00:01,15.08804312,0.0002006,53.2144,209.4703,42.0321,176.9964,0.00072433,0.00011247,0.0,0 STARLINK-3515,1 51738U 22016AA  22190.83334491  .00011247  00000-0  72433-3 0  9991,2 51738  53.2144 209.4703 0002006  42.0321 176.9964 15.08804312  1308,6917.989000000001,95.44,541.242,538.467,0.0
51738.0,STARLINK-3515,PAYLOAD,2022-07-10 06:00:00,15.088297,0.000214,53.2143,207.6008,42.71,280.7675,-0.0015373,-0.00024665,0.0,0 STARLINK-3515,1 51738U 22016AA  22191.25001157 -.00024665  00000-0 -15373-2 0  9997,2 51738  53.2143 207.6008 0002140  42.7100 280.7675 15.08829700 22614,6917.9119999999975,95.438,541.257,538.2959999999998,0.0
51738.0,STARLINK-3515,PAYLOAD,2022-07-10 14:00:01,15.08821016,0.000222,53.2139,206.1048,39.6573,295.3871,-3.748e-05,-8.84e-06,0.0,0 STARLINK-3515,1 51738U 22016AA  22191.58334491 -.00000884  00000-0 -37480-4 0  9995,2 51738  53.2139 206.1048 0002220  39.6573 295.3871 15.08821016 22662,6917.938,95.439,541.339,538.268,0.0
51738.0,STARLINK-3515,PAYLOAD,2022-07-10 22:00:00,15.0879682,0.0002045,53.2142,204.6068,45.2302,301.3964,0.0029982,0.00047696,0.0,0 STARLINK-3515,1 51738U 22016AA  22191.91667824  .00047696  00000-0  29982-2 0  9997,2 51738  53.2142 204.6068 0002045  45.2302 301.3964 15.08796820 22710,6918.012,95.44,541.2919999999998,538.4630000000002,0.0
51738.0,STARLINK-3515,PAYLOAD,2022-07-11 06:00:00,15.08836379,0.000221,53.2142,203.1117,43.5913,314.5983,-0.0015648,-0.00025104,0.0,0 STARLINK-3515,1 51738U 22016AA  22192.25001157 -.00025104  00000-0 -15648-2 0  9992,2 51738  53.2142 203.1117 0002210  43.5913 314.5983 15.08836379 22768,6917.891,95.438,541.285,538.2280000000002,0.0
51738.0,STARLINK-3515,PAYLOAD,2022-07-11 14:00:01,15.08831823,0.0002259,53.2137,201.6155,41.1293,328.6347,-0.00057809,-9.475e-05,0.0,0 STARLINK-3515,1 51738U 22016AA  22192.58334491 -.00009475  00000-0 -57809-3 0  9997,2 51738  53.2137 201.6155 0002259  41.1293 328.6347 15.08831823  1301,6917.905,95.438,541.3330000000002,538.2080000000002,0.0
51738.0,STARLINK-3515,PAYLOAD,2022-07-11 22:00:00,15.08804028,0.0002069,53.2139,200.1175,46.9106,334.4439,0.0029736,0.00047309,0.0,0 STARLINK-3515,1 51738U 22016AA  22192.91667824  .00047309  00000-0  29736-2 0  9996,2 51738  53.2139 200.1175 0002069  46.9106 334.4439 15.08804028  1308,6917.99,95.44,541.2869999999998,538.424,0.0
51738.0,STARLINK-3515,PAYLOAD,2022-07-12 06:00:00,15.08841423,0.0002238,53.2139,198.6226,44.944,347.9825,-0.0016101,-0.00025824,0.0,0 STARLINK-3515,1 51738U 22016AA  22193.25001157 -.00025824  00000-0 -16101-2 0  9997,2 51738  53.2139 198.6226 0002238  44.9440 347.9825 15.08841423 22911,6917.876,95.437,541.289,538.193,0.0
51738.0,STARLINK-3515,PAYLOAD,2022-07-12 14:00:01,15.08843194,0.0002265,53.2134,197.126,43.0919,1.4198,-0.00085912,-0.00013937,0.0,0 STARLINK-3515,1 51738U 22016AA  22193.58334491 -.00013937  00000-0 -85912-3 0  9992,2 51738  53.2134 197.1260 0002265  43.0919   1.4198 15.08843194 22966,6917.871,95.437,541.303,538.169,0.0
51738.0,STARLINK-3515,PAYLOAD,2022-07-12 22:00:00,15.08816076,0.0002082,53.2136,195.6281,49.1138,6.9988,0.0029082,0.0004627,0.0,0 STARLINK-3515,1 51738U 22016AA  22193.91667824  .00046270  00000-0  29082-2 0  9997,2 51738  53.2136 195.6281 0002082  49.1138   6.9988 15.08816076  1302,6917.954000000002,95.439,541.259,538.378,0.0
51738.0,STARLINK-3515,PAYLOAD,2022-07-13 06:00:00,15.08850114,0.0002258,53.2136,194.1334,46.8835,20.815,-0.0013935,-0.00022404,0.0,0 STARLINK-3515,1 51738U 22016AA  22194.25001157 -.00022404  00000-0 -13935-2 0  9991,2 51738  53.2136 194.1334 0002258  46.8835  20.8150 15.08850114 23062,6917.849,95.437,541.2769999999998,538.1519999999998,0.0
51738.0,STARLINK-3515,PAYLOAD,2022-07-13 14:00:01,15.08853122,0.0002278,53.2139,192.6366,45.4784,33.8127,-0.0012015999999999,-0.00019368,0.0,0 STARLINK-3515,1 51738U 22016AA  22194.58334491 -.00019368  00000-0 -12016-2 0  9991,2 51738  53.2139 192.6366 0002278  45.4784  33.8127 15.08853122  1306,6917.84,95.437,541.281,538.129,0.0
51738.0,STARLINK-3515,PAYLOAD,2022-07-13 16:00:00,15.08857993,0.0002216,53.2141,192.262,47.5216,124.669,-0.0020671,-0.00033053,0.0,0 STARLINK-3515,1 51738U 22016AA  22194.66667824 -.00033053  00000-0 -20671-2 0  9992,2 51738  53.2141 192.2620 0002216  47.5216 124.6690 15.08857993 23132,6917.825,95.436,541.2230000000002,538.1569999999998,0.0
51738.0,STARLINK-3515,PAYLOAD,2022-07-13 22:00:00,15.08826112,0.0002131,53.2146,191.1387,51.3666,39.5315,0.0024377,0.00038707,0.0,0 STARLINK-3515,1 51738U 22016AA  22194.91667824  .00038707  00000-0  24377-2 0  9996,2 51738  53.2146 191.1387 0002131  51.3666  39.5315 15.08826112 23163,6917.9230000000025,95.438,541.262,538.314,0.0
51738.0,STARLINK-3515,PAYLOAD,2022-07-14 08:00:01,15.08838802,0.0002346,53.2154,189.2703,47.8077,147.5938,0.00089645,0.00014007,0.0,0 STARLINK-3515,1 51738U 22016AA  22195.33334491  .00014007  00000-0  89645-3 0  9991,2 51738  53.2154 189.2703 0002346  47.8077 147.5938 15.08838802 23234,6917.884,95.438,541.372,538.126,0.0
51738.0,STARLINK-3515,PAYLOAD,2022-07-14 14:00:01,15.08865861,0.0002305,53.215,188.1472,47.7441,66.354,-0.0012357,-0.00019915,0.0,0 STARLINK-3515,1 51738U 22016AA  22195.58334491 -.00019915  00000-0 -12357-2 0  9998,2 51738  53.2150 188.1472 0002305  47.7441  66.3540 15.08865861 23276,6917.801,95.436,541.261,538.072,0.0
51738.0,STARLINK-3515,PAYLOAD,2022-07-14 22:00:00,15.08838654,0.0002203,53.2152,186.6495,53.3419,72.3698,0.0021169,0.00033563,0.0,0 STARLINK-3515,1 51738U 22016AA  22195.91667824  .00033563  00000-0  21169-2 0  9998,2 51738  53.2152 186.6495 0002203  53.3419  72.3698 15.08838654 23328,6917.885,95.438,541.274,538.225,0.0
51738.0,STARLINK-3515,PAYLOAD,2022-07-15 06:00:00,15.08865013,0.0002364,53.2153,185.1548,49.6208,87.6999,-0.0018689,-0.0002993,0.0,0 STARLINK-3515,1 51738U 22016AA  22196.25001157 -.00029930  00000-0 -18689-2 0  9995,2 51738  53.2153 185.1548 0002364  49.6208  87.6999 15.08865013 23371,6917.804,95.436,541.304,538.034,0.0
51738.0,STARLINK-3515,PAYLOAD,2022-07-15 14:00:01,15.08860166,0.00023,53.2154,183.6579,47.6786,101.2555,-0.0028042,-0.00044667,0.0,0 STARLINK-3515,1 51738U 22016AA  22196.58334491 -.00044667  00000-0 -28042-2 0  9999,2 51738  53.2154 183.6579 0002300  47.6786 101.2555 15.08860166 23429,6917.819,95.436,541.275,538.0930000000002,0.0
51738.0,STARLINK-3515,PAYLOAD,2022-07-15 22:00:00,15.0882615,0.0002201,53.2157,182.1603,52.8873,107.6479,0.0019179,0.00030356,0.0,0 STARLINK-3515,1 51738U 22016AA  22196.91667824  .00030356  00000-0  19179-2 0  9994,2 51738  53.2157 182.1603 0002201  52.8873 107.6479 15.08826150 23474,6917.9230000000025,95.438,541.31,538.265,0.0
51738.0,STARLINK-3515,PAYLOAD,2022-07-16 06:00:00,15.08841011,0.0002394,53.2159,180.6657,49.2736,122.856,-0.00035807,-5.983e-05,0.0,0 STARLINK-3515,1 51738U 22016AA  22197.25001157 -.00005983  00000-0 -35807-3 0  9990,2 51738  53.2159 180.6657 0002394  49.2736 122.8560 15.08841011 23528,6917.877,95.437,541.398,538.086,0.0
51738.0,STARLINK-3515,PAYLOAD,2022-07-16 14:00:01,15.08865213,0.0002354,53.216,179.1687,48.8173,134.908,-0.0016895,-0.00027096,0.0,0 STARLINK-3515,1 51738U 22016AA  22197.58334491 -.00027096  00000-0 -16895-2 0  9990,2 51738  53.2160 179.1687 0002354  48.8173 134.9080 15.08865213 23578,6917.803000000001,95.436,541.297,538.04,0.0
51738.0,STARLINK-3515,PAYLOAD,2022-07-16 22:00:00,15.08858508,0.0002262,53.2164,177.6712,53.8691,141.469,-0.00020634,-3.573e-05,0.0,0 STARLINK-3515,1 51738U 22016AA  22197.91667824 -.00003573  00000-0 -20634-3 0  9997,2 51738  53.2164 177.6712 0002262  53.8691 141.4690 15.08858508 23628,6917.824000000001,95.436,541.254,538.124,0.0
51738.0,STARLINK-3515,PAYLOAD,2022-07-17 06:00:00,15.08833625,0.0002409,53.2165,176.1766,48.9654,157.9959,0.00022381,3.275e-05,0.0,0 STARLINK-3515,1 51738U 22016AA  22198.25001157  .00003275  00000-0  22381-3 0  9994,2 51738  53.2165 176.1766 0002409  48.9654 157.9959 15.08833625 23677,6917.9,95.438,541.431,538.0980000000002,0.0
51738.0,STARLINK-3515,PAYLOAD,2022-07-17 14:00:01,15.08858257,0.0002328,53.2167,174.6795,48.7607,169.782,-0.0019127,-0.00030616,0.0,0 STARLINK-3515,1 51738U 22016AA  22198.58334491 -.00030616  00000-0 -19127-2 0  9994,2 51738  53.2167 174.6795 0002328  48.7607 169.7820 15.08858257 23722,6917.825,95.436,541.3,538.0790000000002,0.0
51738.0,STARLINK-3515,PAYLOAD,2022-07-17 22:00:00,15.08846831,0.000222,53.2171,173.1822,53.1971,176.9488,-0.0012484,-0.00020106,0.0,0 STARLINK-3515,1 51738U 22016AA  22198.91667824 -.00020106  00000-0 -12484-2 0  9992,2 51738  53.2171 173.1822 0002220  53.1971 176.9488 15.08846831 23777,6917.86,95.437,541.26,538.189,0.0
51738.0,STARLINK-3515,PAYLOAD,2022-07-18 06:00:00,15.08817095,0.000238,53.2171,171.6877,47.8949,193.8462,0.00064407,9.971e-05,0.0,0 STARLINK-3515,1 51738U 22016AA  22199.25001157  .00009971  00000-0  64407-3 0  9999,2 51738  53.2171 171.6877 0002380  47.8949 193.8462 15.08817095 23828,6917.95,95.439,541.462,538.169,0.0
51738.0,STARLINK-3515,PAYLOAD,2022-07-18 14:00:01,15.08845806,0.0002286,53.2171,170.1905,48.7417,204.5673,-0.0020619,-0.0003296,0.0,0 STARLINK-3515,1 51738U 22016AA  22199.58334491 -.00032960  00000-0 -20619-2 0  9997,2 51738  53.2171 170.1905 0002286  48.7417 204.5673 15.08845806  1303,6917.863,95.437,541.309,538.146,0.0
